OBJECT_NAME,OBJECT_ID,EPOCH,MEAN_MOTION,ECCENTRICITY,INCLINATION,RA_OF_ASC_NODE,ARG_OF_PERICENTER,MEAN_ANOMALY,EPHEMERIS_TYPE,CLASSIFICATION_TYPE,NORAD_CAT_ID,ELEMENT_SET_NO,REV_AT_EPOCH,BSTAR,MEAN_MOTION_DOT,MEAN_MOTION_DDOT
PERSEUS-M1,2014-033AF,2026-05-19T09:37:15.680352,14.95525884,.0012674,97.9635,83.0654,39.4863,320.7279,0,U,40039,999,64633,.11741E-3,.1242E-4,0
POLYITAN-1,2014-033AJ,2026-05-18T19:17:58.762176,15.32154281,.00056968,98.0962,162.3101,240.0236,120.0439,0,U,40042,999,64909,.38316913E-3,.11817E-3,0
TIGRISAT,2014-033AK,2026-05-19T09:54:55.960416,14.85024588,.00498,97.7799,290.0931,167.5007,192.7456,0,U,40043,999,64135,.15761E-3,.1319E-4,0
AEROCUBE 6A,2014-033AM,2026-05-19T10:23:40.881120,14.97759247,.0040123,97.7224,306.6998,110.9849,249.5673,0,U,40045,999,64231,.25522E-3,.2984E-4,0
AEROCUBE 6B,2014-033AN,2026-05-19T04:42:36.593568,14.99179016,.0038576,97.7178,306.1952,105.0547,255.4949,0,U,40046,999,64241,.31360131E-3,.3816E-4,0
CANX-4,2014-034C,2026-05-19T10:36:58.209696,14.81204890,.0014104,98.3157,13.6959,102.2045,258.0746,0,U,40055,999,64027,.75098E-4,.528E-5,0
CANX-5,2014-034D,2026-05-19T04:06:05.340096,14.81221742,.0014094,98.3161,13.4562,103.1891,257.0894,0,U,40056,999,63104,.77793E-4,.549E-5,0
UKUBE-1,2014-037F,2026-05-19T11:18:49.798080,15.13040231,.000045,98.4243,139.7395,134.6534,225.4731,0,U,40074,999,64421,.32216E-3,.5617E-4,0
BRITE-PL2 (HEWELIUSZ),2014-049B,2026-05-19T05:58:46.909056,14.94470930,.0013642,97.9066,251.0338,200.1054,159.9630,0,U,40119,999,63712,.13507E-3,.14E-4,0
AEROCUBE 5C,2015-058B,2026-05-19T04:51:23.063328,14.91274358,.01299333,64.7681,352.7496,74.6674,286.8754,0,U,40965,999,36133,.17571604E-3,.1881E-4,0
AEROCUBE 7,2015-058C,2026-05-19T13:09:41.061888,14.95485037,.0119715,64.7625,334.5033,73.2066,288.2141,0,U,40966,999,36167,.23662E-3,.285E-4,0
FOX-1A (AO-85),2015-058D,2026-05-19T08:59:28.737024,14.90784112,.0129238,64.7764,8.5128,67.8967,293.5807,0,U,40967,999,10927,.18458E-3,.1955E-4,0
SINOD-D 1,2015-058E,2026-05-19T04:41:25.971072,14.95660609,.01177461,64.7760,349.6876,64.7204,296.6056,0,U,40968,999,11232,.22632714E-3,.2718E-4,0
SNAP-3 ALICE,2015-058G,2026-05-19T11:02:11.680224,15.54097802,.0033385,64.7515,202.7449,26.7126,333.5727,0,U,40970,999,11241,.75706E-3,.50711E-3,0
LMRST-SAT,2015-058H,2026-05-19T01:18:08.560800,14.90409081,.01309792,64.7770,5.7913,70.0469,291.4696,0,U,40971,999,10921,.20778142E-3,.221E-4,0
SNAP-3 EDDIE,2015-058J,2026-05-19T09:46:54.539616,15.55252562,.0033699,64.7431,193.8551,30.4699,329.8393,0,U,40972,999,11454,.7238E-3,.50614E-3,0
PROPCUBE 3,2015-058K,2026-05-19T13:30:14.522976,14.94045833,.0123113,64.7689,341.9562,71.3337,290.1095,0,U,40973,999,11052,.2112E-3,.2443E-4,0
BISONSAT,2015-058L,2026-05-19T08:02:27.366144,15.15560645,.0078605,64.7603,266.8750,59.4887,301.3967,0,U,40974,999,11124,.33692E-3,.6736E-4,0
SNAP-3 JIMI,2015-058M,2026-05-18T21:30:08.632800,15.01978122,.0105068,64.7649,312.4251,67.5350,293.6852,0,U,40975,999,10982,.28176E-3,.3981E-4,0
PROPCUBE 1 (FLORA),2015-058N,2026-05-19T01:11:21.850944,14.89039864,.0129777,64.7760,25.5297,72.3304,289.1927,0,U,40976,999,11192,.18603E-3,.188E-4,0
SINOD-D 3,2015-058P,2026-05-18T22:04:46.621920,14.93773336,.0118241,64.7735,7.1960,69.8344,291.5442,0,U,40977,999,11038,.25181E-3,.2892E-4,0
HORYU-4,2016-012D,2026-05-19T10:35:37.060224,15.79800066,.0004488,30.9887,287.3122,80.3168,279.7996,0,U,41340,999,56624,.68779E-3,.134509E-2,0
RAVAN,2016-067B,2026-05-19T05:53:57.267744,15.51802776,.0007194,97.9929,25.5391,103.2439,256.9614,0,U,41849,999,52320,.47667E-3,.28457E-3,0
CELTEE 1,2016-067C,2026-05-18T20:05:46.383360,15.19364275,.00015134,98.0706,3.4044,56.9062,303.2316,0,U,41850,999,52142,.17675541E-3,.366E-4,0
OPTICUBE 04,2016-067D,2026-05-19T12:15:15.114240,15.09524020,.0014891,98.0725,350.2966,210.3383,149.6984,0,U,41851,999,52084,.83242E-4,.1266E-4,0
AEROCUBE 8D,2016-067E,2026-05-19T03:18:39.009600,15.23949269,.00023319,98.0715,7.1041,213.3170,146.7919,0,U,41852,999,52164,.18092997E-3,.4294E-4,0
AEROCUBE 8C,2016-067F,2026-05-19T13:28:32.221920,15.24193406,.0006078,98.0584,4.8247,146.5508,213.6113,0,U,41853,999,52170,.20724E-3,.4969E-4,0
CORVUS BC2,2017-042X,2026-05-19T10:17:18.646656,15.06089179,.0012438,97.4041,301.9061,203.5411,156.5249,0,U,42846,999,48273,.94264E-4,.132E-4,0
CORVUS BC1,2017-042Y,2026-05-19T10:14:15.338688,15.06259726,.0011951,97.4070,302.6991,179.2637,180.8610,0,U,42847,999,48276,.93162E-4,.131E-4,0
MAKERSAT 0,2017-073D,2026-05-19T04:04:45.484896,15.30786593,.0110537,97.4662,21.4848,17.3797,343.1179,0,U,43016,999,46202,.44461E-3,.15924E-3,0
